NORAD_CAT_ID,OBJECT_NAME,OBJECT_TYPE,EPOCH,MEAN_MOTION,ECCENTRICITY,INCLINATION,RA_OF_ASC_NODE,ARG_OF_PERICENTER,MEAN_ANOMALY,BSTAR,MEAN_MOTION_DOT,MEAN_MOTION_DDOT,TLE_LINE0,TLE_LINE1,TLE_LINE2,SEMIMAJOR_AXIS,PERIOD,APOGEE,PERIGEE,DECAYED
53528.0,STARLINK-4503,PAYLOAD,2023-05-09 01:11:41,15.08847013,0.000136,53.2186,43.2853,104.0926,256.0217,7.3583e-05,8.84e-06,0.0,0 STARLINK-4503,1 53528U 22101B   23129.04978099  .00000884  00000-0  73583-4 0  9992,2 53528  53.2186  43.2853 0001360 104.0926 256.0217 15.08847013 39818,6917.859,95.437,540.665,538.783,0.0
53528.0,STARLINK-4503,PAYLOAD,2023-05-10 01:02:28,15.08836998,0.0001279,53.2183,38.8285,102.7771,257.3364,8.6451e-05,1.088e-05,0.0,0 STARLINK-4503,1 53528U 22101B   23130.04339058  .00001088  00000-0  86451-4 0  9995,2 53528  53.2183  38.8285 0001279 102.7771 257.3364 15.08836998 39969,6917.89,95.438,540.639,538.87,0.0
53528.0,STARLINK-4503,PAYLOAD,2023-05-11 00:53:15,15.08847545,0.0001674,53.2195,34.3714,124.0728,236.0423,4.9407e-05,4.98e-06,0.0,0 STARLINK-4503,1 53528U 22101B   23131.03698650  .00000498  00000-0  49407-4 0  9995,2 53528  53.2195  34.3714 0001674 124.0728 236.0423 15.08847545 40117,6917.857,95.437,540.88,538.564,0.0
53528.0,STARLINK-4503,PAYLOAD,2023-05-11 23:08:40,15.0883416,0.0001228,53.2189,30.2073,107.445,252.6677,3.9172e-05,3.36e-06,0.0,0 STARLINK-4503,1 53528U 22101B   23131.96435853  .00000336  00000-0  39172-4 0  9990,2 53528  53.2189  30.2073 0001228 107.4450 252.6677 15.08834160 40254,6917.898,95.438,540.613,538.914,0.0
53528.0,STARLINK-4503,PAYLOAD,2023-05-12 00:44:03,15.08835078,0.0001354,53.2184,29.9105,117.0108,243.1023,4.0986e-06,-2.23e-06,0.0,0 STARLINK-4503,1 53528U 22101B   23132.03059899 -.00000223  00000-0  40986-5 0  9993,2 53528  53.2184  29.9105 0001354 117.0108 243.1023 15.08835078 40267,6917.895,95.438,540.697,538.824,0.0
53528.0,STARLINK-4503,PAYLOAD,2023-05-12 21:24:04,15.08845951,0.0001031,53.2181,26.045,112.7839,247.3263,-1.746e-06,-3.16e-06,0.0,0 STARLINK-4503,1 53528U 22101B   23132.89171406 -.00000316  00000-0 -17460-5 0  9991,2 53528  53.2181  26.0450 0001031 112.7839 247.3263 15.08845951 40397,6917.862,95.437,540.44,539.014,0.0
53528.0,STARLINK-4503,PAYLOAD,2023-05-13 00:34:49,15.08851083,0.0001113,53.2183,25.4482,87.6919,272.42,8.2976e-05,1.033e-05,0.0,0 STARLINK-4503,1 53528U 22101B   23133.02418912  .00001033  00000-0  82976-4 0  9991,2 53528  53.2183  25.4482 0001113  87.6919 272.4200 15.08851083 40413,6917.847,95.437,540.481,538.942,0.0
53528.0,STARLINK-4503,PAYLOAD,2023-05-13 21:14:51,15.08838336,0.0001173,53.2182,21.5847,82.0855,278.027,7.4155e-05,8.92e-06,0.0,0 STARLINK-4503,1 53528U 22101B   23133.88531819  .00000892  00000-0  74155-4 0  9999,2 53528  53.2182  21.5847 0001173  82.0855 278.0270 15.08838336 40547,6917.885,95.438,540.562,538.939,0.0
53528.0,STARLINK-4503,PAYLOAD,2023-05-14 02:01:00,15.08844452,0.0001105,53.2188,20.6891,93.243,266.8689,0.00012399,1.686e-05,0.0,0 STARLINK-4503,1 53528U 22101B   23134.08403240  .00001686  00000-0  12399-3 0  9991,2 53528  53.2188  20.6891 0001105  93.2430 266.8689 15.08844452 40578,6917.867,95.437,540.496,538.967,0.0
53528.0,STARLINK-4503,PAYLOAD,2023-05-14 21:05:37,15.08850157,0.0001157,53.2186,17.1229,94.6726,265.4399,4.4763e-06,-2.17e-06,0.0,0 STARLINK-4503,1 53528U 22101B   23134.87891148 -.00000217  00000-0  44763-5 0  9998,2 53528  53.2186  17.1229 0001157  94.6726 265.4399 15.08850157 40697,6917.849,95.437,540.515,538.914,0.0
53528.0,STARLINK-4503,PAYLOAD,2023-05-14 22:41:00,15.08852244,0.0001186,53.2186,16.8253,85.974,274.1388,2.4873e-05,1.08e-06,0.0,0 STARLINK-4503,1 53528U 22101B   23134.94514948  .00000108  00000-0  24873-4 0  9993,2 53528  53.2186  16.8253 0001186  85.9740 274.1388 15.08852244 40707,6917.843,95.437,540.528,538.888,0.0
53528.0,STARLINK-4503,PAYLOAD,2023-05-15 16:10:15,15.08833335,0.000117,53.2193,13.5559,96.407,263.7055,0.00010578,1.396e-05,0.0,0 STARLINK-4503,1 53528U 22101B   23135.67379628  .00001396  00000-0  10578-3 0  9994,2 53528  53.2193  13.5559 0001170  96.4070 263.7055 15.08833335 40811,6917.901,95.438,540.575,538.956,0.0
53528.0,STARLINK-4503,PAYLOAD,2023-05-16 01:42:34,15.0883855,0.0001235,53.2182,11.7689,91.4114,268.702,5.2267e-06,-2.05e-06,0.0,0 STARLINK-4503,1 53528U 22101B   23136.07123730 -.00000205  00000-0  52267-5 0  9992,2 53528  53.2182  11.7689 0001235  91.4114 268.7020 15.08838550 40876,6917.885,95.438,540.604,538.895,0.0
53528.0,STARLINK-4503,PAYLOAD,2023-05-16 22:22:35,15.08841918,0.0001051,53.2182,7.9022,83.3635,276.7476,-1.4993e-05,-5.26e-06,0.0,0 STARLINK-4503,1 53528U 22101B   23136.93235599 -.00000526  00000-0 -14993-4 0  9994,2 53528  53.2182   7.9022 0001051  83.3635 276.7476 15.08841918 41000,6917.875,95.437,540.467,539.012,0.0
53528.0,STARLINK-4503,PAYLOAD,2023-05-17 19:02:36,15.08834601,0.0001051,53.2183,4.0368,81.6095,278.5016,4.4169e-05,4.15e-06,0.0,0 STARLINK-4503,1 53528U 22101B   23137.79348043  .00000415  00000-0  44169-4 0  9991,2 53528  53.2183   4.0368 0001051  81.6095 278.5016 15.08834601 41138,6917.897,95.438,540.489,539.035,0.0
53528.0,STARLINK-4503,PAYLOAD,2023-05-17 22:13:22,15.08835595,0.0001,53.2175,3.4425,83.7282,276.3824,5.2561e-05,5.49e-06,0.0,0 STARLINK-4503,1 53528U 22101B   23137.92595976  .00000549  00000-0  52561-4 0  9998,2 53528  53.2175   3.4425 0001000  83.7282 276.3824 15.08835595 41159,6917.894,95.438,540.451,539.067,0.0
53528.0,STARLINK-4503,PAYLOAD,2023-05-18 14:07:13,15.08845397,0.0001004,53.2182,0.4685,79.6492,280.4613,0.00010935,1.453e-05,0.0,0 STARLINK-4503,1 53528U 22101B   23138.58835142  .00001453  00000-0  10935-3 0  9996,2 53528  53.2182   0.4685 0001004  79.6492 280.4613 15.08845397 41257,6917.864,95.437,540.423,539.034,0.0
53528.0,STARLINK-4503,PAYLOAD,2023-05-18 15:42:36,15.0884464,0.0001005,53.2181,0.1711,79.4852,280.6253,0.00012278,1.667e-05,0.0,0 STARLINK-4503,1 53528U 22101B   23138.65459122  .00001667  00000-0  12278-3 0  9993,2 53528  53.2181   0.1711 0001005  79.4852 280.6253 15.08844640 41265,6917.866,95.437,540.426,539.036,0.0
53528.0,STARLINK-4503,PAYLOAD,2023-05-19 01:14:54,15.08854714,0.0001017,53.2175,358.3871,81.4828,278.6279,0.00019091,2.753e-05,0.0,0 STARLINK-4503,1 53528U 22101B   23139.05202021  .00002753  00000-0  19091-3 0  9999,2 53528  53.2175 358.3871 0001017  81.4828 278.6279 15.08854714 41327,6917.835,95.437,540.404,538.997,0.0
53528.0,STARLINK-4503,PAYLOAD,2023-05-19 17:08:48,15.08829254,0.0001125,53.2176,355.4137,80.4228,279.6891,-1.6358e-05,-5.48e-06,0.0,0 STARLINK-4503,1 53528U 22101B   23139.71444540 -.00000548  00000-0 -16358-4 0  9992,2 53528  53.2176 355.4137 0001125  80.4228 279.6891 15.08829254 41427,6917.913,95.438,540.557,539.0,0.0
53528.0,STARLINK-4503,PAYLOAD,2023-05-19 21:54:57,15.08831891,0.000107,53.2174,354.5215,88.9156,271.1959,1.2309e-05,-9.2e-07,0.0,0 STARLINK-4503,1 53528U 22101B   23139.91316420 -.00000092  00000-0  12309-4 0  9994,2 53528  53.2174 354.5215 0001070  88.9156 271.1959 15.08831891 41459,6917.905,95.438,540.51,539.03,0.0
53528.0,STARLINK-4503,PAYLOAD,2023-05-20 16:59:34,15.08851459,0.0001156,53.2178,350.9528,83.1193,276.9931,1.3071e-05,-8e-07,0.0,0 STARLINK-4503,1 53528U 22101B   23140.70803293 -.00000080  00000-0  13071-4 0  9996,2 53528  53.2178 350.9528 0001156  83.1193 276.9931 15.08851459 41571,6917.845,95.437,540.51,538.911,0.0
53528.0,STARLINK-4503,PAYLOAD,2023-05-20 20:10:20,15.08852295,0.0001153,53.2165,350.3581,85.1858,274.9266,0.00013151,1.806e-05,0.0,0 STARLINK-4503,1 53528U 22101B   23140.84051053  .00001806  00000-0  13151-3 0  9994,2 53528  53.2165 350.3581 0001153  85.1858 274.9266 15.08852295 41597,6917.843,95.437,540.505,538.91,0.0
53528.0,STARLINK-4503,PAYLOAD,2023-05-20 21:45:43,15.08857254,0.0001172,53.2166,350.0607,83.9913,276.1213,0.00022183,3.246e-05,0.0,0 STARLINK-4503,1 53528U 22101B   23140.90674847  .00003246  00000-0  22183-3 0  9998,2 53528  53.2166 350.0607 0001172  83.9913 276.1213 15.08857254 41601,6917.828,95.436,540.503,538.882,0.0
53528.0,STARLINK-4503,PAYLOAD,2023-05-21 13:39:35,15.08832514,0.0001337,53.2162,347.0868,82.4889,277.6255,0.0001823,2.614e-05,0.0,0 STARLINK-4503,1 53528U 22101B   23141.56916617  .00002614  00000-0  18230-3 0  9991,2 53528  53.2162 347.0868 0001337  82.4889 277.6255 15.08832514 41706,6917.903,95.438,540.693,538.843,0.0
53528.0,STARLINK-4503,PAYLOAD,2023-05-21 20:01:08,15.08835748,0.0001379,53.2162,345.8973,84.2776,275.8373,0.00022023,3.218e-05,0.0,0 STARLINK-4503,1 53528U 22101B   23141.83412668  .00003218  00000-0  22023-3 0  9994,2 53528  53.2162 345.8973 0001379  84.2776 275.8373 15.08835748 41747,6917.893,95.438,540.712,538.804,0.0
53528.0,STARLINK-4503,PAYLOAD,2023-05-22 13:30:23,15.08842588,0.0001106,53.2186,342.6254,102.7313,257.3803,0.00058634,9.057e-05,0.0,0 STARLINK-4503,1 53528U 22101B   23142.56276921  .00009057  00000-0  58634-3 0  9999,2 53528  53.2186 342.6254 0001106 102.7313 257.3803 15.08842588 41856,6917.872,95.437,540.503,538.972,0.0
53528.0,STARLINK-4503,PAYLOAD,2023-05-22 19:51:55,15.08854934,0.0001123,53.2172,341.4374,97.3246,262.7874,0.00087538,0.00013677,0.0,0 STARLINK-4503,1 53528U 22101B   23142.82772658  .00013677  00000-0  87538-3 0  9994,2 53528  53.2172 341.4374 0001123  97.3246 262.7874 15.08854934 41894,6917.835,95.437,540.477,538.923,0.0
53528.0,STARLINK-4503,PAYLOAD,2023-05-23 02:13:27,15.08868782,0.0001138,53.2164,340.2478,94.3015,265.8108,0.0011311,0.00017773,0.0,0 STARLINK-4503,1 53528U 22101B   23143.09268202  .00017773  00000-0  11311-2 0  9995,2 53528  53.2164 340.2478 0001138  94.3015 265.8108 15.08868782 41939,6917.792,95.436,540.445,538.87,0.0
53528.0,STARLINK-4503,PAYLOAD,2023-05-23 11:45:46,15.08860186,0.0001241,53.2164,338.4636,90.958,269.1554,0.0004684,7.179e-05,0.0,0 STARLINK-4503,1 53528U 22101B   23143.49011996  .00007179  00000-0  46840-3 0  9990,2 53528  53.2164 338.4636 0001241  90.9580 269.1554 15.08860186 41996,6917.819,95.436,540.542,538.825,0.0
